[{"OBJECT_NAME":"O3B FM5","OBJECT_ID":"2013-031A","EPOCH":"2026-03-15T02:11:51.681696","MEAN_MOTION":5.00116494,"ECCENTRICITY":0.00032866,"INCLINATION":0.0995,"RA_OF_ASC_NODE":11.2024,"ARG_OF_PERICENTER":333.8033,"MEAN_ANOMALY":14.9812,"EPHEMERIS_TYPE":0,"CLASSIFICATION_TYPE":"U","NORAD_CAT_ID":39188,"ELEMENT_SET_NO":999,"REV_AT_EPOCH":23233,"BSTAR":0,"MEAN_MOTION_DOT":-2.0e-7,"MEAN_MOTION_DDOT":0},{"OBJECT_NAME":"O3B FM4","OBJECT_ID":"2013-031B","EPOCH":"2026-03-13T09:52:53.892768","MEAN_MOTION":5.00115278,"ECCENTRICITY":0.00050987,"INCLINATION":0.0547,"RA_OF_ASC_NODE":345.1246,"ARG_OF_PERICENTER":15.5435,"MEAN_ANOMALY":359.3289,"EPHEMERIS_TYPE":0,"CLASSIFICATION_TYPE":"U","NORAD_CAT_ID":39189,"ELEMENT_SET_NO":999,"REV_AT_EPOCH":23224,"BSTAR":0,"MEAN_MOTION_DOT":-2.2e-7,"MEAN_MOTION_DDOT":0},{"OBJECT_NAME":"O3B FM2","OBJECT_ID":"2013-031C","EPOCH":"2026-03-14T21:02:21.382368","MEAN_MOTION":5.00115986,"ECCENTRICITY":0.0002826,"INCLINATION":0.0549,"RA_OF_ASC_NODE":338.8631,"ARG_OF_PERICENTER":11.4299,"MEAN_ANOMALY":9.6981,"EPHEMERIS_TYPE":0,"CLASSIFICATION_TYPE":"U","NORAD_CAT_ID":39190,"ELEMENT_SET_NO":999,"REV_AT_EPOCH":23239,"BSTAR":0,"MEAN_MOTION_DOT":-2.0e-7,"MEAN_MOTION_DDOT":0},{"OBJECT_NAME":"O3B PFM","OBJECT_ID":"2013-031D","EPOCH":"2026-03-06T02:17:37.197024","MEAN_MOTION":5.00115906,"ECCENTRICITY":0.00051477,"INCLINATION":0.0668,"RA_OF_ASC_NODE":7.2787,"ARG_OF_PERICENTER":352.3292,"MEAN_ANOMALY":0.3862,"EPHEMERIS_TYPE":0,"CLASSIFICATION_TYPE":"U","NORAD_CAT_ID":39191,"ELEMENT_SET_NO":999,"REV_AT_EPOCH":23151,"BSTAR":0,"MEAN_MOTION_DOT":-2.6e-7,"MEAN_MOTION_DDOT":0},{"OBJECT_NAME":"O3B FM3","OBJECT_ID":"2014-038A","EPOCH":"2026-03-15T03:46:27.993216","MEAN_MOTION":5.00115598,"ECCENTRICITY":6.567e-5,"INCLINATION":0.0529,"RA_OF_ASC_NODE":353.7505,"ARG_OF_PERICENTER":63.7945,"MEAN_ANOMALY":302.4581,"EPHEMERIS_TYPE":0,"CLASSIFICATION_TYPE":"U","NORAD_CAT_ID":40079,"ELEMENT_SET_NO":999,"REV_AT_EPOCH":20833,"BSTAR":0,"MEAN_MOTION_DOT":-1.9e-7,"MEAN_MOTION_DDOT":0},{"OBJECT_NAME":"O3B FM7","OBJECT_ID":"2014-038B","EPOCH":"2026-03-13T07:18:15.302592","MEAN_MOTION":5.00115635,"ECCENTRICITY":0.00043845,"INCLINATION":0.0586,"RA_OF_ASC_NODE":348.607,"ARG_OF_PERICENTER":352.5506,"MEAN_ANOMALY":18.8225,"EPHEMERIS_TYPE":0,"CLASSIFICATION_TYPE":"U","NORAD_CAT_ID":40080,"ELEMENT_SET_NO":999,"REV_AT_EPOCH":21308,"BSTAR":0,"MEAN_MOTION_DOT":-2.2e-7,"MEAN_MOTION_DDOT":0},{"OBJECT_NAME":"O3B FM6","OBJECT_ID":"2014-038C","EPOCH":"2026-03-15T03:07:43.372704","MEAN_MOTION":5.00115707,"ECCENTRICITY":0.00026409,"INCLINATION":0.0547,"RA_OF_ASC_NODE":351.3156,"ARG_OF_PERICENTER":0.9701,"MEAN_ANOMALY":7.7068,"EPHEMERIS_TYPE":0,"CLASSIFICATION_TYPE":"U","NORAD_CAT_ID":40081,"ELEMENT_SET_NO":999,"REV_AT_EPOCH":21312,"BSTAR":0,"MEAN_MOTION_DOT":-1.9e-7,"MEAN_MOTION_DDOT":0},{"OBJECT_NAME":"O3B FM8","OBJECT_ID":"2014-038D","EPOCH":"2026-03-15T04:24:29.487168","MEAN_MOTION":5.00115993,"ECCENTRICITY":0.00026475,"INCLINATION":0.0555,"RA_OF_ASC_NODE":350.608,"ARG_OF_PERICENTER":5.3351,"MEAN_ANOMALY":4.0513,"EPHEMERIS_TYPE":0,"CLASSIFICATION_TYPE":"U","NORAD_CAT_ID":40082,"ELEMENT_SET_NO":999,"REV_AT_EPOCH":21324,"BSTAR":0,"MEAN_MOTION_DOT":-1.9e-7,"MEAN_MOTION_DDOT":0},{"OBJECT_NAME":"O3B FM10","OBJECT_ID":"2014-083A","EPOCH":"2026-03-11T09:54:27.943488","MEAN_MOTION":5.00115268,"ECCENTRICITY":0.00026511,"INCLINATION":0.0429,"RA_OF_ASC_NODE":348.257,"ARG_OF_PERICENTER":1.066,"MEAN_ANOMALY":10.6675,"EPHEMERIS_TYPE":0,"CLASSIFICATION_TYPE":"U","NORAD_CAT_ID":40348,"ELEMENT_SET_NO":999,"REV_AT_EPOCH":20499,"BSTAR":0,"MEAN_MOTION_DOT":-2.4e-7,"MEAN_MOTION_DDOT":0},{"OBJECT_NAME":"O3B FM11","OBJECT_ID":"2014-083B","EPOCH":"2026-03-15T00:33:56.653632","MEAN_MOTION":5.00115575,"ECCENTRICITY":0.00030887,"INCLINATION":0.0573,"RA_OF_ASC_NODE":0.3012,"ARG_OF_PERICENTER":341.5889,"MEAN_ANOMALY":18.0955,"EPHEMERIS_TYPE":0,"CLASSIFICATION_TYPE":"U","NORAD_CAT_ID":40349,"ELEMENT_SET_NO":999,"REV_AT_EPOCH":20520,"BSTAR":0,"MEAN_MOTION_DOT":-2.0e-7,"MEAN_MOTION_DDOT":0},{"OBJECT_NAME":"O3B FM12","OBJECT_ID":"2014-083C","EPOCH":"2026-03-15T01:12:56.960064","MEAN_MOTION":5.00115981,"ECCENTRICITY":0.00026126,"INCLINATION":0.0566,"RA_OF_ASC_NODE":359.5634,"ARG_OF_PERICENTER":347.4659,"MEAN_ANOMALY":12.9606,"EPHEMERIS_TYPE":0,"CLASSIFICATION_TYPE":"U","NORAD_CAT_ID":40350,"ELEMENT_SET_NO":999,"REV_AT_EPOCH":20521,"BSTAR":0,"MEAN_MOTION_DOT":-2.0e-7,"MEAN_MOTION_DDOT":0},{"OBJECT_NAME":"O3B FM9","OBJECT_ID":"2014-083D","EPOCH":"2026-03-15T01:51:35.172288","MEAN_MOTION":5.00115908,"ECCENTRICITY":0.00027193,"INCLINATION":0.0584,"RA_OF_ASC_NODE":0.4596,"ARG_OF_PERICENTER":352.5981,"MEAN_ANOMALY":6.9352,"EPHEMERIS_TYPE":0,"CLASSIFICATION_TYPE":"U","NORAD_CAT_ID":40351,"ELEMENT_SET_NO":999,"REV_AT_EPOCH":20536,"BSTAR":0,"MEAN_MOTION_DOT":-2.0e-7,"MEAN_MOTION_DDOT":0},{"OBJECT_NAME":"LEO 1 (LEO VANTAGE 1)","OBJECT_ID":"2018-004C","EPOCH":"2026-03-15T05:31:09.682752","MEAN_MOTION":14.67247755,"ECCENTRICITY":0.0352472,"INCLINATION":99.2473,"RA_OF_ASC_NODE":340.269,"ARG_OF_PERICENTER":7.9411,"MEAN_ANOMALY":352.717,"EPHEMERIS_TYPE":0,"CLASSIFICATION_TYPE":"U","NORAD_CAT_ID":43113,"ELEMENT_SET_NO":999,"REV_AT_EPOCH":42370,"BSTAR":0.00038724603,"MEAN_MOTION_DOT":5.574e-5,"MEAN_MOTION_DDOT":0},{"OBJECT_NAME":"O3B FM15","OBJECT_ID":"2018-024A","EPOCH":"2026-03-15T03:27:43.843680","MEAN_MOTION":5.00115704,"ECCENTRICITY":0.00026764,"INCLINATION":0.0491,"RA_OF_ASC_NODE":1.4753,"ARG_OF_PERICENTER":348.5914,"MEAN_ANOMALY":9.9247,"EPHEMERIS_TYPE":0,"CLASSIFICATION_TYPE":"U","NORAD_CAT_ID":43231,"ELEMENT_SET_NO":999,"REV_AT_EPOCH":14632,"BSTAR":0,"MEAN_MOTION_DOT":-1.9e-7,"MEAN_MOTION_DDOT":0},{"OBJECT_NAME":"O3B FM16","OBJECT_ID":"2018-024B","EPOCH":"2026-03-15T04:43:08.528736","MEAN_MOTION":5.00115906,"ECCENTRICITY":0.00028027,"INCLINATION":0.0456,"RA_OF_ASC_NODE":3.7624,"ARG_OF_PERICENTER":343.7498,"MEAN_ANOMALY":12.4776,"EPHEMERIS_TYPE":0,"CLASSIFICATION_TYPE":"U","NORAD_CAT_ID":43232,"ELEMENT_SET_NO":999,"REV_AT_EPOCH":14624,"BSTAR":0,"MEAN_MOTION_DOT":-1.9e-7,"MEAN_MOTION_DDOT":0},{"OBJECT_NAME":"O3B FM14","OBJECT_ID":"2018-024C","EPOCH":"2026-03-12T15:19:53.120928","MEAN_MOTION":5.00115666,"ECCENTRICITY":0.00028427,"INCLINATION":0.0439,"RA_OF_ASC_NODE":2.773,"ARG_OF_PERICENTER":349.0319,"MEAN_ANOMALY":8.1868,"EPHEMERIS_TYPE":0,"CLASSIFICATION_TYPE":"U","NORAD_CAT_ID":43233,"ELEMENT_SET_NO":999,"REV_AT_EPOCH":14612,"BSTAR":0,"MEAN_MOTION_DOT":-2.3e-7,"MEAN_MOTION_DDOT":0},{"OBJECT_NAME":"O3B FM13","OBJECT_ID":"2018-024D","EPOCH":"2026-03-13T02:30:24.004800","MEAN_MOTION":5.0011563,"ECCENTRICITY":0.00037966,"INCLINATION":0.0487,"RA_OF_ASC_NODE":334.7219,"ARG_OF_PERICENTER":336.321,"MEAN_ANOMALY":48.9207,"EPHEMERIS_TYPE":0,"CLASSIFICATION_TYPE":"U","NORAD_CAT_ID":43234,"ELEMENT_SET_NO":999,"REV_AT_EPOCH":14625,"BSTAR":0,"MEAN_MOTION_DOT":-2.2e-7,"MEAN_MOTION_DDOT":0}]
